{"type": "FeatureCollection", "features": [ {"type": "Feature", "properties": {"norad_id": 40664, "name": "SKY MEXICO-1", "group": "intelsat", "lat": 0.014355387332091686, "lon": 160.83186366717584, "alt_km": 35792.24864857516, "timestamp": "2025-12-22T09:53:37.074217+00:00", "meta": {"OBJECT_NAME": "SKY MEXICO-1", "OBJECT_ID": "2015-026B", "EPOCH": "2025-12-22T01:43:32.693088", "MEAN_MOTION": 1.00271315, "ECCENTRICITY": 0.0002373, "INCLINATION": 0.0147, "RA_OF_ASC_NODE": 359.445, "ARG_OF_PERICENTER": 288.2407, "MEAN_ANOMALY": 110.3225, "EPHEMERIS_TYPE": 0, "CLASSIFICATION_TYPE": "U", "NORAD_CAT_ID": 40664, "ELEMENT_SET_NO": 999, "REV_AT_EPOCH": 3867, "BSTAR": 0, "MEAN_MOTION_DOT": -2.12e-06, "MEAN_MOTION_DDOT": 0}, "tle": {"line1": "1 40664U 15026B   25356.07190617 -.00000212  00000+0  00000+0 0  9990", "line2": "2 40664   0.0147 359.4450 0002373 288.2407 110.3225  1.00271315 38678"}}, "geometry": {"type": "Point", "coordinates": [160.83186366717584, 0.014355387332091686]}}, {"type": "Feature", "properties": {"norad_id": 40874, "name": "INTELSAT 34 (IS-34)", "group": "intelsat", "lat": -0.012012207578407779, "lon": -175.87826933214103, "alt_km": 35783.08225160326, "timestamp": "2025-12-22T09:53:37.074228+00:00", "meta": {"OBJECT_NAME": "INTELSAT 34 (IS-34)", "OBJECT_ID": "2015-039A", "EPOCH": "2025-12-21T19:46:55.848000", "MEAN_MOTION": 1.00270951, "ECCENTRICITY": 8.41e-05, "INCLINATION": 0.0124, "RA_OF_ASC_NODE": 314.731, "ARG_OF_PERICENTER": 208.8293, "MEAN_ANOMALY": 168.3161, "EPHEMERIS_TYPE": 0, "CLASSIFICATION_TYPE": "U", "NORAD_CAT_ID": 40874, "ELEMENT_SET_NO": 999, "REV_AT_EPOCH": 3784, "BSTAR": 0, "MEAN_MOTION_DOT": -2.63e-06, "MEAN_MOTION_DDOT": 0}, "tle": {"line1": "1 40874U 15039A   25355.82425750 -.00000263  00000+0  00000+0 0  9994", "line2": "2 40874   0.0124 314.7310 0000841 208.8293 168.3161  1.00270951 37849"}}, "geometry": {"type": "Point", "coordinates": [-175.87826933214103, -0.012012207578407779]}}, {"type": "Feature", "properties": {"norad_id": 41581, "name": "INTELSAT 31 (IS-31)", "group": "intelsat", "lat": -0.004660046162084374, "lon": 144.5459469639451, "alt_km": 35781.79211578834, "timestamp": "2025-12-22T09:53:37.074240+00:00", "meta": {"OBJECT_NAME": "INTELSAT 31 (IS-31)", "OBJECT_ID": "2016-035A", "EPOCH": "2025-12-22T00:43:42.862944", "MEAN_MOTION": 1.00271013, "ECCENTRICITY": 0.0001962, "INCLINATION": 0.0321, "RA_OF_ASC_NODE": 262.8183, "ARG_OF_PERICENTER": 298.2424, "MEAN_ANOMALY": 165.6602, "EPHEMERIS_TYPE": 0, "CLASSIFICATION_TYPE": "U", "NORAD_CAT_ID": 41581, "ELEMENT_SET_NO": 999, "REV_AT_EPOCH": 3490, "BSTAR": 0, "MEAN_MOTION_DOT": -1.29e-06, "MEAN_MOTION_DDOT": 0}, "tle": {"line1": "1 41581U 16035A   25356.03035721 -.00000129  00000+0  00000+0 0  9997", "line2": "2 41581   0.0321 262.8183 0001962 298.2424 165.6602  1.00271013 34903"}}, "geometry": {"type": "Point", "coordinates": [144.5459469639451, -0.004660046162084374]}}, {"type": "Feature", "properties": {"norad_id": 41747, "name": "INTELSAT 36 (IS-36)", "group": "intelsat", "lat": -0.028789581491726685, "lon": -51.89316786957783, "alt_km": 35782.376527492255, "timestamp": "2025-12-22T09:53:37.074251+00:00", "meta": {"OBJECT_NAME": "INTELSAT 36 (IS-36)", "OBJECT_ID": "2016-053A", "EPOCH": "2025-12-22T03:13:12.764064", "MEAN_MOTION": 1.00270934, "ECCENTRICITY": 9.84e-05, "INCLINATION": 0.0105, "RA_OF_ASC_NODE": 357.6786, "ARG_OF_PERICENTER": 328.626, "MEAN_ANOMALY": 241.4387, "EPHEMERIS_TYPE": 0, "CLASSIFICATION_TYPE": "U", "NORAD_CAT_ID": 41747, "ELEMENT_SET_NO": 999, "REV_AT_EPOCH": 3417, "BSTAR": 0, "MEAN_MOTION_DOT": -2e-08, "MEAN_MOTION_DDOT": 0}, "tle": {"line1": "1 41747U 16053A   25356.13417551 -.00000002  00000+0  00000+0 0  9997", "line2": "2 41747   0.0105 357.6786 0000984 328.6260 241.4387  1.00270934 34171"}}, "geometry": {"type": "Point", "coordinates": [-51.89316786957783, -0.028789581491726685]}}, {"type": "Feature", "properties": {"norad_id": 41945, "name": "INTELSAT 32E (IS-32E)", "group": "intelsat", "lat": 0.01664877462811345, "lon": -163.56394512309996, "alt_km": 35790.4593096603, "timestamp": "2025-12-22T09:53:37.074263+00:00", "meta": {"OBJECT_NAME": "INTELSAT 32E (IS-32E)", "OBJECT_ID": "2017-007B", "EPOCH": "2025-12-22T00:58:33.939840", "MEAN_MOTION": 1.0026741, "ECCENTRICITY": 7.53e-05, "INCLINATION": 0.0249, "RA_OF_ASC_NODE": 67.4865, "ARG_OF_PERICENTER": 319.1289, "MEAN_ANOMALY": 35.7031, "EPHEMERIS_TYPE": 0, "CLASSIFICATION_TYPE": "U", "NORAD_CAT_ID": 41945, "ELEMENT_SET_NO": 999, "REV_AT_EPOCH": 3244, "BSTAR": 0, "MEAN_MOTION_DOT": -2.47e-06, "MEAN_MOTION_DDOT": 0}, "tle": {"line1": "1 41945U 17007B   25356.04067060 -.00000247  00000+0  00000+0 0  9994", "line2": "2 41945   0.0249  67.4865 0000753 319.1289  35.7031  1.00267410 32447"}}, "geometry": {"type": "Point", "coordinates": [-163.56394512309996, 0.01664877462811345]}}, {"type": "Feature", "properties": {"norad_id": 42818, "name": "INTELSAT 35E (IS-35E)", "group": "intelsat", "lat": -0.01207023632492444, "lon": -154.90999013877382, "alt_km": 35784.79950697051, "timestamp": "2025-12-22T09:53:37.074274+00:00", "meta": {"OBJECT_NAME": "INTELSAT 35E (IS-35E)", "OBJECT_ID": "2017-041A", "EPOCH": "2025-12-22T02:43:45.584256", "MEAN_MOTION": 1.00267925, "ECCENTRICITY": 0.0001922, "INCLINATION": 0.0217, "RA_OF_ASC_NODE": 13.399, "ARG_OF_PERICENTER": 264.6583, "MEAN_ANOMALY": 179.3067, "EPHEMERIS_TYPE": 0, "CLASSIFICATION_TYPE": "U", "NORAD_CAT_ID": 42818, "ELEMENT_SET_NO": 999, "REV_AT_EPOCH": 3104, "BSTAR": 0, "MEAN_MOTION_DOT": 0, "MEAN_MOTION_DDOT": 0}, "tle": {"line1": "1 42818U 17041A   25356.11372204  .00000000  00000+0  00000+0 0  9995", "line2": "2 42818   0.0217  13.3990 0001922 264.6583 179.3067  1.00267925 31041"}}, "geometry": {"type": "Point", "coordinates": [-154.90999013877382, -0.01207023632492444]}}, {"type": "Feature", "properties": {"norad_id": 42950, "name": "INTELSAT 37E (IS-37E)", "group": "intelsat", "lat": -0.02898131770863296, "lon": -138.41775401720963, "alt_km": 35778.1046392382, "timestamp": "2025-12-22T09:53:37.074286+00:00", "meta": {"OBJECT_NAME": "INTELSAT 37E (IS-37E)", "OBJECT_ID": "2017-059A", "EPOCH": "2025-12-22T01:05:48.246720", "MEAN_MOTION": 1.00268299, "ECCENTRICITY": 0.0002867, "INCLINATION": 0.0213, "RA_OF_ASC_NODE": 3.2584, "ARG_OF_PERICENTER": 260.6351, "MEAN_ANOMALY": 185.4083, "EPHEMERIS_TYPE": 0, "CLASSIFICATION_TYPE": "U", "NORAD_CAT_ID": 42950, "ELEMENT_SET_NO": 999, "REV_AT_EPOCH": 3029, "BSTAR": 0, "MEAN_MOTION_DOT": 0, "MEAN_MOTION_DDOT": 0}, "tle": {"line1": "1 42950U 17059A   25356.04569730  .00000000  00000+0  00000+0 0  9995", "line2": "2 42950   0.0213   3.2584 0002867 260.6351 185.4083  1.00268299 30296"}}, "geometry": {"type": "Point", "coordinates": [-138.41775401720963, -0.02898131770863296]}}, {"type": "Feature", "properties": {"norad_id": 43632, "name": "AZERSPACE 2 (IS-38)", "group": "intelsat", "lat": -0.040739619616467854, "lon": -75.26994741657381, "alt_km": 35781.78427198172, "timestamp": "2025-12-22T09:53:37.074298+00:00", "meta": {"OBJECT_NAME": "AZERSPACE 2 (IS-38)", "OBJECT_ID": "2018-074A", "EPOCH": "2025-12-22T03:06:28.410336", "MEAN_MOTION": 1.00270026, "ECCENTRICITY": 0.0001175, "INCLINATION": 0.0187, "RA_OF_ASC_NODE": 348.1932, "ARG_OF_PERICENTER": 279.5458, "MEAN_ANOMALY": 274.9316, "EPHEMERIS_TYPE": 0, "CLASSIFICATION_TYPE": "U", "NORAD_CAT_ID": 43632, "ELEMENT_SET_NO": 999, "REV_AT_EPOCH": 2667, "BSTAR": 0, "MEAN_MOTION_DOT": 1.59e-06, "MEAN_MOTION_DDOT": 0}, "tle": {"line1": "1 43632U 18074A   25356.12949549  .00000159  00000+0  00000+0 0  9995", "line2": "2 43632   0.0187 348.1932 0001175 279.5458 274.9316  1.00270026 26671"}}, "geometry": {"type": "Point", "coordinates": [-75.26994741657381, -0.040739619616467854]}}, {"type": "Feature", "properties": {"norad_id": 43633, "name": "HORIZONS-3E", "group": "intelsat", "lat": -0.006795306290755122, "lon": 48.60253110453241, "alt_km": 35786.85141056387, "timestamp": "2025-12-22T09:53:37.074309+00:00", "meta": {"OBJECT_NAME": "HORIZONS-3E", "OBJECT_ID": "2018-074B", "EPOCH": "2025-12-22T02:33:38.529216", "MEAN_MOTION": 1.00270031, "ECCENTRICITY": 5.52e-05, "INCLINATION": 0.01, "RA_OF_ASC_NODE": 217.5508, "ARG_OF_PERICENTER": 94.3369, "MEAN_ANOMALY": 346.4228, "EPHEMERIS_TYPE": 0, "CLASSIFICATION_TYPE": "U", "NORAD_CAT_ID": 43633, "ELEMENT_SET_NO": 999, "REV_AT_EPOCH": 2656, "BSTAR": 0, "MEAN_MOTION_DOT": 0, "MEAN_MOTION_DDOT": 0}, "tle": {"line1": "1 43633U 18074B   25356.10669594  .00000000  00000+0  00000+0 0  9998", "line2": "2 43633   0.0100 217.5508 0000552  94.3369 346.4228  1.00270031 26568"}}, "geometry": {"type": "Point", "coordinates": [48.60253110453241, -0.006795306290755122]}}, {"type": "Feature", "properties": {"norad_id": 44333, "name": "AT&T T-16", "group": "intelsat", "lat": 0.033644577894615245, "lon": 138.76089098060643, "alt_km": 35781.577327503146, "timestamp": "2025-12-22T09:53:37.074321+00:00", "meta": {"OBJECT_NAME": "AT&T T-16", "OBJECT_ID": "2019-034A", "EPOCH": "2025-12-22T00:42:05.517792", "MEAN_MOTION": 1.00271543, "ECCENTRICITY": 0.00011, "INCLINATION": 0.0187, "RA_OF_ASC_NODE": 60.003, "ARG_OF_PERICENTER": 87.6404, "MEAN_ANOMALY": 212.8681, "EPHEMERIS_TYPE": 0, "CLASSIFICATION_TYPE": "U", "NORAD_CAT_ID": 44333, "ELEMENT_SET_NO": 999, "REV_AT_EPOCH": 2385, "BSTAR": 0, "MEAN_MOTION_DOT": -9.3e-07, "MEAN_MOTION_DDOT": 0}, "tle": {"line1": "1 44333U 19034A   25356.02923053 -.00000093  00000+0  00000+0 0  9990", "line2": "2 44333   0.0187  60.0030 0001100  87.6404 212.8681  1.00271543 23854"}}, "geometry": {"type": "Point", "coordinates": [138.76089098060643, 0.033644577894615245]}}]}